[{"OBJECT_NAME":"TDRS 11","OBJECT_ID":"2013-004A","EPOCH":"2026-03-28T19:05:18.049920","MEAN_MOTION":1.00271003,"ECCENTRICITY":0.0004437,"INCLINATION":3.4031,"RA_OF_ASC_NODE":29.8134,"ARG_OF_PERICENTER":353.7258,"MEAN_ANOMALY":274.5558,"EPHEMERIS_TYPE":0,"CLASSIFICATION_TYPE":"U","NORAD_CAT_ID":39070,"ELEMENT_SET_NO":999,"REV_AT_EPOCH":4588,"BSTAR":0,"MEAN_MOTION_DOT":6.2e-7,"MEAN_MOTION_DDOT":0},{"OBJECT_NAME":"AMAZONAS 3","OBJECT_ID":"2013-006A","EPOCH":"2026-03-28T17:55:02.287200","MEAN_MOTION":1.00271184,"ECCENTRICITY":0.0002094,"INCLINATION":0.019,"RA_OF_ASC_NODE":202.5673,"ARG_OF_PERICENTER":147.1841,"MEAN_ANOMALY":44.1714,"EPHEMERIS_TYPE":0,"CLASSIFICATION_TYPE":"U","NORAD_CAT_ID":39078,"ELEMENT_SET_NO":999,"REV_AT_EPOCH":4410,"BSTAR":0,"MEAN_MOTION_DOT":-3.02e-6,"MEAN_MOTION_DDOT":0},{"OBJECT_NAME":"AZERSPACE 1","OBJECT_ID":"2013-006B","EPOCH":"2026-03-28T20:08:17.568672","MEAN_MOTION":1.00272031,"ECCENTRICITY":0.0001254,"INCLINATION":0.016,"RA_OF_ASC_NODE":108.1617,"ARG_OF_PERICENTER":285.8215,"MEAN_ANOMALY":140.302,"EPHEMERIS_TYPE":0,"CLASSIFICATION_TYPE":"U","NORAD_CAT_ID":39079,"ELEMENT_SET_NO":999,"REV_AT_EPOCH":4800,"BSTAR":0,"MEAN_MOTION_DOT":1.14e-6,"MEAN_MOTION_DDOT":0},{"OBJECT_NAME":"SBIRS GEO-2 (USA 241)","OBJECT_ID":"2013-011A","EPOCH":"2026-03-28T19:40:50.203200","MEAN_MOTION":1.00271026,"ECCENTRICITY":0.0002241,"INCLINATION":4.3153,"RA_OF_ASC_NODE":52.4083,"ARG_OF_PERICENTER":316.4197,"MEAN_ANOMALY":62.8057,"EPHEMERIS_TYPE":0,"CLASSIFICATION_TYPE":"U","NORAD_CAT_ID":39120,"ELEMENT_SET_NO":999,"REV_AT_EPOCH":4773,"BSTAR":0,"MEAN_MOTION_DOT":-3.02e-6,"MEAN_MOTION_DDOT":0},{"OBJECT_NAME":"EUTELSAT 117 WEST A","OBJECT_ID":"2013-012A","EPOCH":"2026-03-28T15:56:28.656384","MEAN_MOTION":1.00271866,"ECCENTRICITY":0.0002907,"INCLINATION":0.0419,"RA_OF_ASC_NODE":35.2892,"ARG_OF_PERICENTER":332.4899,"MEAN_ANOMALY":300.5955,"EPHEMERIS_TYPE":0,"CLASSIFICATION_TYPE":"U","NORAD_CAT_ID":39122,"ELEMENT_SET_NO":999,"REV_AT_EPOCH":4762,"BSTAR":0,"MEAN_MOTION_DOT":-3.2e-7,"MEAN_MOTION_DDOT":0},{"OBJECT_NAME":"ANIK G1","OBJECT_ID":"2013-014A","EPOCH":"2026-03-28T15:59:13.392672","MEAN_MOTION":1.00271298,"ECCENTRICITY":0.0002579,"INCLINATION":0.0174,"RA_OF_ASC_NODE":116.4184,"ARG_OF_PERICENTER":227.4512,"MEAN_ANOMALY":334.7043,"EPHEMERIS_TYPE":0,"CLASSIFICATION_TYPE":"U","NORAD_CAT_ID":39127,"ELEMENT_SET_NO":999,"REV_AT_EPOCH":4744,"BSTAR":0,"MEAN_MOTION_DOT":-9.4e-7,"MEAN_MOTION_DDOT":0},{"OBJECT_NAME":"ZHONGXING-11","OBJECT_ID":"2013-020A","EPOCH":"2026-03-27T18:42:52.752672","MEAN_MOTION":1.00268189,"ECCENTRICITY":0.00010205,"INCLINATION":0.031,"RA_OF_ASC_NODE":301.3781,"ARG_OF_PERICENTER":84.5221,"MEAN_ANOMALY":177.8728,"EPHEMERIS_TYPE":0,"CLASSIFICATION_TYPE":"U","NORAD_CAT_ID":39157,"ELEMENT_SET_NO":999,"REV_AT_EPOCH":4708,"BSTAR":0,"MEAN_MOTION_DOT":-3.08e-6,"MEAN_MOTION_DDOT":0},{"OBJECT_NAME":"EUTELSAT 7B","OBJECT_ID":"2013-022A","EPOCH":"2026-03-28T20:21:38.559744","MEAN_MOTION":1.00271004,"ECCENTRICITY":0.0006269,"INCLINATION":0.0683,"RA_OF_ASC_NODE":5.1589,"ARG_OF_PERICENTER":357.5539,"MEAN_ANOMALY":135.9292,"EPHEMERIS_TYPE":0,"CLASSIFICATION_TYPE":"U","NORAD_CAT_ID":39163,"ELEMENT_SET_NO":999,"REV_AT_EPOCH":4714,"BSTAR":0,"MEAN_MOTION_DOT":2.8e-7,"MEAN_MOTION_DDOT":0},{"OBJECT_NAME":"WGS F5 (USA 243)","OBJECT_ID":"2013-024A","EPOCH":"2026-03-28T11:06:49.457952","MEAN_MOTION":1.00271308,"ECCENTRICITY":3.14e-5,"INCLINATION":0.0118,"RA_OF_ASC_NODE":179.7184,"ARG_OF_PERICENTER":115.6716,"MEAN_ANOMALY":4.6862,"EPHEMERIS_TYPE":0,"CLASSIFICATION_TYPE":"U","NORAD_CAT_ID":39168,"ELEMENT_SET_NO":999,"REV_AT_EPOCH":4636,"BSTAR":0,"MEAN_MOTION_DOT":-3.04e-6,"MEAN_MOTION_DDOT":0},{"OBJECT_NAME":"SES-6","OBJECT_ID":"2013-026A","EPOCH":"2026-03-28T19:43:34.941216","MEAN_MOTION":1.00270505,"ECCENTRICITY":0.0002095,"INCLINATION":0.0365,"RA_OF_ASC_NODE":307.3127,"ARG_OF_PERICENTER":78.5637,"MEAN_ANOMALY":55.7331,"EPHEMERIS_TYPE":0,"CLASSIFICATION_TYPE":"U","NORAD_CAT_ID":39172,"ELEMENT_SET_NO":999,"REV_AT_EPOCH":4691,"BSTAR":0,"MEAN_MOTION_DOT":-2.81e-6,"MEAN_MOTION_DDOT":0},{"OBJECT_NAME":"IRNSS-1A","OBJECT_ID":"2013-034A","EPOCH":"2026-03-28T00:19:38.724960","MEAN_MOTION":1.00277123,"ECCENTRICITY":0.0016621,"INCLINATION":35.5432,"RA_OF_ASC_NODE":65.0278,"ARG_OF_PERICENTER":190.5814,"MEAN_ANOMALY":349.6873,"EPHEMERIS_TYPE":0,"CLASSIFICATION_TYPE":"U","NORAD_CAT_ID":39199,"ELEMENT_SET_NO":999,"REV_AT_EPOCH":4655,"BSTAR":0,"MEAN_MOTION_DOT":7.9e-7,"MEAN_MOTION_DDOT":0},{"OBJECT_NAME":"ALPHASAT","OBJECT_ID":"2013-038A","EPOCH":"2026-03-28T13:11:29.477472","MEAN_MOTION":1.00271402,"ECCENTRICITY":0.0001914,"INCLINATION":2.9873,"RA_OF_ASC_NODE":2.0687,"ARG_OF_PERICENTER":24.9603,"MEAN_ANOMALY":21.6756,"EPHEMERIS_TYPE":0,"CLASSIFICATION_TYPE":"U","NORAD_CAT_ID":39215,"ELEMENT_SET_NO":999,"REV_AT_EPOCH":4321,"BSTAR":0,"MEAN_MOTION_DOT":1.16e-6,"MEAN_MOTION_DDOT":0},{"OBJECT_NAME":"INSAT-3D","OBJECT_ID":"2013-038B","EPOCH":"2026-03-28T20:32:02.520672","MEAN_MOTION":1.00268978,"ECCENTRICITY":0.0001584,"INCLINATION":1.7191,"RA_OF_ASC_NODE":83.5497,"ARG_OF_PERICENTER":246.2248,"MEAN_ANOMALY":294.0421,"EPHEMERIS_TYPE":0,"CLASSIFICATION_TYPE":"U","NORAD_CAT_ID":39216,"ELEMENT_SET_NO":999,"REV_AT_EPOCH":4627,"BSTAR":0,"MEAN_MOTION_DOT":-3.57e-6,"MEAN_MOTION_DDOT":0},{"OBJECT_NAME":"WGS F6 (USA 244)","OBJECT_ID":"2013-041A","EPOCH":"2026-03-28T07:17:48.456384","MEAN_MOTION":1.0027101,"ECCENTRICITY":2.943e-5,"INCLINATION":0.0218,"RA_OF_ASC_NODE":162.4737,"ARG_OF_PERICENTER":191.5294,"MEAN_ANOMALY":165.9928,"EPHEMERIS_TYPE":0,"CLASSIFICATION_TYPE":"U","NORAD_CAT_ID":39222,"ELEMENT_SET_NO":999,"REV_AT_EPOCH":4525,"BSTAR":0,"MEAN_MOTION_DOT":0,"MEAN_MOTION_DDOT":0},{"OBJECT_NAME":"ES'HAIL 1","OBJECT_ID":"2013-044A","EPOCH":"2026-03-28T20:02:25.632096","MEAN_MOTION":1.00269249,"ECCENTRICITY":0.0002721,"INCLINATION":0.0248,"RA_OF_ASC_NODE":8.7496,"ARG_OF_PERICENTER":352.0032,"MEAN_ANOMALY":151.6121,"EPHEMERIS_TYPE":0,"CLASSIFICATION_TYPE":"U","NORAD_CAT_ID":39233,"ELEMENT_SET_NO":999,"REV_AT_EPOCH":4582,"BSTAR":0,"MEAN_MOTION_DOT":0,"MEAN_MOTION_DDOT":0},{"OBJECT_NAME":"GSAT-7","OBJECT_ID":"2013-044B","EPOCH":"2026-03-28T20:16:19.029216","MEAN_MOTION":1.00271729,"ECCENTRICITY":0.0005839,"INCLINATION":0.0875,"RA_OF_ASC_NODE":87.3951,"ARG_OF_PERICENTER":210.1706,"MEAN_ANOMALY":266.7411,"EPHEMERIS_TYPE":0,"CLASSIFICATION_TYPE":"U","NORAD_CAT_ID":39234,"ELEMENT_SET_NO":999,"REV_AT_EPOCH":4445,"BSTAR":0,"MEAN_MOTION_DOT":-9.6e-7,"MEAN_MOTION_DDOT":0},{"OBJECT_NAME":"AMOS-4","OBJECT_ID":"2013-045A","EPOCH":"2026-03-28T20:44:38.631264","MEAN_MOTION":1.00271986,"ECCENTRICITY":0.0003371,"INCLINATION":0.0094,"RA_OF_ASC_NODE":178.3827,"ARG_OF_PERICENTER":187.4431,"MEAN_ANOMALY":196.5966,"EPHEMERIS_TYPE":0,"CLASSIFICATION_TYPE":"U","NORAD_CAT_ID":39237,"ELEMENT_SET_NO":999,"REV_AT_EPOCH":4615,"BSTAR":0,"MEAN_MOTION_DOT":-1.2e-7,"MEAN_MOTION_DDOT":0}]
