TDRS 11                 
1 39070U 13004A   26087.79534780  .00000062  00000+0  00000+0 0  9999
2 39070   3.4031  29.8134 0004437 353.7258 274.5558  1.00271003 45885
AMAZONAS 3              
1 39078U 13006A   26087.74655425 -.00000302  00000+0  00000+0 0  9992
2 39078   0.0190 202.5673 0002094 147.1841  44.1714  1.00271184 44109
AZERSPACE 1             
1 39079U 13006B   26087.83909223  .00000114  00000+0  00000+0 0  9991
2 39079   0.0160 108.1617 0001254 285.8215 140.3020  1.00272031 48002
SBIRS GEO-2 (USA 241)   
1 39120U 13011A   26087.82002550 -.00000302  00000+0  00000+0 0  9990
2 39120   4.3153  52.4083 0002241 316.4197  62.8057  1.00271026 47733
EUTELSAT 117 WEST A     
1 39122U 13012A   26087.66422056 -.00000032  00000+0  00000+0 0  9992
2 39122   0.0419  35.2892 0002907 332.4899 300.5955  1.00271866 47625
ANIK G1                 
1 39127U 13014A   26087.66612723 -.00000094  00000+0  00000+0 0  9999
2 39127   0.0174 116.4184 0002579 227.4512 334.7043  1.00271298 47440
ZHONGXING-11            
1 39157U 13020A   26086.77977723 -.00000308  00000+0  00000+0 0  9992
2 39157   0.0310 301.3781 0001020  84.5221 177.8728  1.00268189 47083
EUTELSAT 7B             
1 39163U 13022A   26087.84836296  .00000028  00000+0  00000+0 0  9997
2 39163   0.0683   5.1589 0006269 357.5539 135.9292  1.00271004 47141
WGS F5 (USA 243)        
1 39168U 13024A   26087.46307243 -.00000304  00000+0  00000+0 0  9995
2 39168   0.0118 179.7184 0000314 115.6716   4.6862  1.00271308 46368
SES-6                   
1 39172U 13026A   26087.82193219 -.00000281  00000+0  00000+0 0  9992
2 39172   0.0365 307.3127 0002095  78.5637  55.7331  1.00270505 46917
IRNSS-1A                
1 39199U 13034A   26087.01364265  .00000079  00000+0  00000+0 0  9996
2 39199  35.5432  65.0278 0016621 190.5814 349.6873  1.00277123 46550
ALPHASAT                
1 39215U 13038A   26087.54964673  .00000116  00000+0  00000+0 0  9998
2 39215   2.9873   2.0687 0001914  24.9603  21.6756  1.00271402 43217
INSAT-3D                
1 39216U 13038B   26087.85558473 -.00000357  00000+0  00000+0 0  9998
2 39216   1.7191  83.5497 0001584 246.2248 294.0421  1.00268978 46276
WGS F6 (USA 244)        
1 39222U 13041A   26087.30403306  .00000000  00000+0  00000+0 0  9997
2 39222   0.0218 162.4737 0000294 191.5294 165.9928  1.00271010 45255
ES'HAIL 1               
1 39233U 13044A   26087.83501889  .00000000  00000+0  00000+0 0  9995
2 39233   0.0248   8.7496 0002721 352.0032 151.6121  1.00269249 45826
GSAT-7                  
1 39234U 13044B   26087.84466469 -.00000096  00000+0  00000+0 0  9997
2 39234   0.0875  87.3951 0005839 210.1706 266.7411  1.00271729 44451
AMOS-4                  
1 39237U 13045A   26087.86433601 -.00000012  00000+0  00000+0 0  9993
2 39237   0.0094 178.3827 0003371 187.4431 196.5966  1.00271986 46159
